{"type":"FeatureCollection","features":[{"type":"Feature","geometry":{"type":"LineString","coordinates":[[-76.1661220669999,-15.213854339],[-75.512336912,-15.9029792329999],[-74.681853065,-16.5744342579999],[-73.763019874,-17.2105495439999],[-72.861856551,-17.7759853549999],[-72.0843823119999,-18.4827801169999],[-71.5189465019999,-19.330933833],[-71.183218989,-20.3557862389999],[-71.059529906,-21.6280168119999],[-71.1478792509999,-22.546850004],[-71.306908073,-23.5717024099999],[-71.430597156,-24.9676220659999],[-71.536616371,-26.3458718539999],[-71.9783630969999,-27.5474229509999],[-72.243411134,-28.837323393],[-72.420109824,-30.144893704],[-72.4907893009999,-31.222755717],[-72.473119431,-32.247608123],[-72.702827729,-33.148771446],[-72.9855456339999,-33.855566209],[-73.515641707,-34.7743994],[-73.9220486949999,-35.693232592],[-74.2047666,-36.700415129],[-74.2577762079999,-37.3188605469999],[-74.169426862,-37.848956619],[-74.664183196,-39.209536537],[-74.840881887,-40.0753601219999],[-75.2649587449999,-41.347590695],[-75.583016388,-43.1499173399999],[-75.848064424,-44.634186342],[-75.9187439,-45.411660581],[-75.7950548169999,-46.312823903],[-75.936413769,-46.94893919],[-76.378160496,-47.744083298],[-76.8022373539999,-48.8749549189999],[-76.8022373539999,-50.058836146],[-76.413500234,-51.0130090759999],[-75.9894233759999,-52.8506754589999],[-75.317968352,-54.140575902],[-73.816029481,-55.218437915],[-72.102052181,-55.88989294],[-70.7768120009999,-56.4023191429999],[-69.928658285,-56.5966877019999],[-68.7977866649999,-56.7380466549999],[-67.949632949,-57.126783775],[-67.1898285789999,-57.250472858],[-66.341674864,-56.985424822],[-65.634880101,-56.154940976],[-64.875075731,-55.7308641179999]]},"properties":{"name":null}},{"type":"Feature","geometry":{"type":"LineString","coordinates":[[-70.00079214,-23.0425375],[-70.038840882,-23.1162569369999],[-70.07213353,-23.1757080959999],[-70.122072504,-23.2422933939999],[-70.1648773379999,-23.325525016],[-70.200548033,-23.406378592],[-70.2338406819999,-23.4682077969999],[-70.276645516,-23.560951605],[-70.288535748,-23.6227808099999],[-70.314694258,-23.677475876],[-70.3289625359999,-23.744061174],[-70.336096675,-23.834426935],[-70.307560119,-23.936682928],[-70.305182073,-24.0127804109999],[-70.3194503509999,-24.115036404],[-70.331340583,-24.193511934],[-70.352743,-24.269609417],[-70.364633231,-24.2957679269999]]},"properties":{"name":null}},{"type":"Feature","geometry":{"type":"LineString","coordinates":[[-70.4502429,-23.8558293519999],[-70.4169502509999,-23.910524418],[-70.395547834,-23.998512133],[-70.383657602,-24.0722315699999],[-70.381279556,-24.134060775],[-70.3693893239999,-24.193511934],[-70.3598771389999,-24.2862557409999],[-70.343230814,-24.3623532249999]]},"properties":{"name":null}},{"type":"Feature","geometry":{"type":"LineString","coordinates":[[-70.490669688,-23.09485452],[-70.50255992,-23.149549586],[-70.509694059,-23.1971105129999],[-70.50255992,-23.2636958109999],[-70.493047734,-23.3302811089999]]},"properties":{"name":null}},{"type":"Feature","geometry":{"type":"LineString","coordinates":[[-70.578657403,-23.21851293],[-70.562011078,-23.2613177649999],[-70.5715232639999,-23.2922323669999],[-70.5548769389999,-23.3397932939999],[-70.52871843,-23.373085943],[-70.535852569,-23.413512731],[-70.509694059,-23.4658297509999]]},"properties":{"name":null}},{"type":"Feature","geometry":{"type":"LineString","coordinates":[[-70.440136203,-24.975294671],[-70.4223008549999,-24.918221559],[-70.402681973,-24.852230773],[-70.3830630909999,-24.773755243],[-70.3705783469999,-24.698846783],[-70.350959465,-24.620371253],[-70.342041791,-24.559731072],[-70.333124117,-24.497307355],[-70.324206443,-24.4438013119999],[-70.3117217,-24.3688928519999],[-70.3045875609999,-24.3082526699999],[-70.295669887,-24.23691128],[-70.290319283,-24.174487563]]},"properties":{"name":null}},{"type":"Feature","geometry":{"type":"LineString","coordinates":[[-69.916289052,-20.028627915],[-69.918828499,-20.029897639],[-69.939144075,-20.03751598],[-69.956073721,-20.043441356],[-69.97004068,-20.048943491],[-69.982737915,-20.053599144],[-70.004746455,-20.064603414],[-70.018290172,-20.072644996],[-70.034373336,-20.084495748],[-70.047493812,-20.09253733],[-70.061037529,-20.094653536],[-70.073734764,-20.098039465],[-70.085585516,-20.101425395]]},"properties":{"name":null}},{"type":"Feature","geometry":{"type":"LineString","coordinates":[[-71.360569174,-17.392943139],[-71.3507466199999,-17.3871651659999],[-71.338035079,-17.3744536259999],[-71.3235901469999,-17.3640532749999],[-71.3085674179999,-17.3496083429999],[-71.2964336749999,-17.336319005],[-71.2825665399999,-17.3230296679999],[-71.261765838,-17.323607465],[-71.242698527,-17.3207184779999],[-71.2380761489999,-17.317251695],[-71.2253646089999,-17.308584735],[-71.2086084869999,-17.298762182],[-71.1964747439999,-17.2912508169999]]},"properties":{"name":"CERRO CORDILLERAS FAULT"}},{"type":"Feature","geometry":{"type":"LineString","coordinates":[[-71.147939772,-17.202847832],[-71.151984353,-17.213248183],[-71.151406556,-17.2248041289999],[-71.153139948,-17.2386712639999],[-71.1537177449999,-17.253693993],[-71.170473866,-17.274494696],[-71.1675848799999,-17.2883618299999],[-71.175096245,-17.300495573],[-71.176251839,-17.313784911],[-71.179140826,-17.3334300189999],[-71.1831854069999,-17.3444081669999],[-71.1831854069999,-17.353652924],[-71.188385582,-17.359430897],[-71.191274569,-17.369831248],[-71.198785933,-17.381387193]]},"properties":{"name":null}},{"type":"Feature","geometry":{"type":"LineString","coordinates":[[-71.313767593,-17.4651678],[-71.301056053,-17.453034057],[-71.291233499,-17.438589125],[-71.284877729,-17.426455382],[-71.271588391,-17.4189440169999],[-71.2525210809999,-17.408543666],[-71.2386539459999,-17.401610099],[-71.227675798,-17.394676531],[-71.217275447,-17.384853977]]},"properties":{"name":"CERRO CORDILLERAS FAULT"}},{"type":"Feature","geometry":{"type":"LineString","coordinates":[[-71.0406620759999,-17.5878534239999],[-71.05048463,-17.595942586],[-71.06319617,-17.60345395],[-71.0724409269999,-17.6109653149999],[-71.0857302649999,-17.61847668],[-71.095552818,-17.6288770309999],[-71.1123089399999,-17.634655004],[-71.120398102,-17.6404329769999]]},"properties":{"name":"CHOLOLO FAULT"}},{"type":"Feature","geometry":{"type":"LineString","coordinates":[[-71.0972862099999,-17.71843561],[-71.0863080619999,-17.7086130559999],[-71.0689741429999,-17.6993683],[-71.055684806,-17.694745922],[-71.040084279,-17.6843455699999],[-71.021594766,-17.674523017],[-71.004838644,-17.6675894489999],[-70.9863491309999,-17.662967071],[-70.967859618,-17.659500287],[-70.951681294,-17.657766895]]},"properties":{"name":null}},{"type":"Feature","geometry":{"type":"LineString","coordinates":[[-70.955148078,-17.6831899759999],[-70.964392834,-17.69301253],[-70.978259969,-17.6982127049999],[-70.9892381179999,-17.703990678],[-71.004838644,-17.7120798399999],[-71.011194415,-17.7259469749999],[-71.019283577,-17.732880542],[-71.030839522,-17.743858691],[-71.0418176709999,-17.7542590419999],[-71.053951414,-17.761770407]]},"properties":{"name":"CHASPAYA FAULT"}},{"type":"Feature","geometry":{"type":"LineString","coordinates":[[-71.1019085889999,-17.505806209],[-71.108264359,-17.518517749],[-71.123864885,-17.533540479],[-71.137154223,-17.547985411],[-71.147554574,-17.5560745729999],[-71.1683552759999,-17.565897127],[-71.18684479,-17.574564086],[-71.202445316,-17.5826532479999],[-71.215156857,-17.5866978289999],[-71.2238238159999,-17.590164613],[-71.2382687479999,-17.604031748],[-71.2509802879999,-17.610387518],[-71.264269626,-17.6150098959999],[-71.27409218,-17.620210072],[-71.289692706,-17.6236768549999],[-71.305293233,-17.621943464],[-71.325516138,-17.620787869],[-71.341116665,-17.6259880449999]]},"properties":{"name":"CHOLOLO_FAULT"}},{"type":"Feature","geometry":{"type":"LineString","coordinates":[[-70.2900864929999,-17.479024895],[-70.3229567389999,-17.465671358],[-70.350691008,-17.4492362349999],[-70.38664284,-17.429719527],[-70.422594671,-17.413284404],[-70.455464916,-17.396849281],[-70.4738902299999,-17.389979914],[-70.4877573649999,-17.3905577109999],[-70.509135864,-17.384779738],[-70.522425202,-17.3766905759999],[-70.535714539,-17.369179211],[-70.5570930389999,-17.359934455],[-70.56113762,-17.357623266]]},"properties":{"name":"MICALACO FAULT"}},{"type":"Feature","geometry":{"type":"LineString","coordinates":[[-70.56113762,-17.3501119009999],[-70.5865607009999,-17.3356669689999],[-70.605628011,-17.3235332259999],[-70.6281621049999,-17.312555077],[-70.644340429,-17.302732523],[-70.659940956,-17.2946433609999],[-70.677852672,-17.2830874159999],[-70.6969199819999,-17.2686424839999],[-70.7107871169999,-17.257086538],[-70.7263876439999,-17.248419579],[-70.743721562,-17.2403304169999],[-70.7500773319999,-17.235130241]]},"properties":{"name":"MICALACO FAULT"}},{"type":"Feature","geometry":{"type":"LineString","coordinates":[[-69.824959678,-17.706291828],[-69.8440269879999,-17.696469274],[-69.8625165019999,-17.688957909],[-69.8885173789999,-17.682024342],[-69.912207068,-17.6722017879999],[-69.934741162,-17.6594902479999],[-69.951497284,-17.651978883],[-69.96709781,-17.646778707],[-69.9850095259999,-17.638689545],[-70.005810228,-17.625400208],[-70.021988552,-17.6149998569999],[-70.0416336599999,-17.606332897],[-70.072834714,-17.597665938]]},"properties":{"name":null}},{"type":"Feature","geometry":{"type":"LineString","coordinates":[[-69.987320715,-17.665846018],[-70.010432607,-17.650823288],[-70.034122295,-17.6300225859999],[-70.0555007949999,-17.6138442619999],[-70.075145903,-17.6022883159999],[-70.104035767,-17.5878433839999],[-70.131770037,-17.5716650599999],[-70.146214969,-17.5629981009999],[-70.175104833,-17.5445085879999],[-70.198216725,-17.535263831],[-70.217284035,-17.5219744939999],[-70.2236398049999,-17.513885332]]},"properties":{"name":null}},{"type":"Feature","geometry":{"type":"LineString","coordinates":[[-70.2340401559999,-17.535841628],[-70.2502184799999,-17.512729737],[-70.2635078179999,-17.494818021],[-70.274485966,-17.486151062],[-70.287197507,-17.480950886]]},"properties":{"name":null}},{"type":"Feature","geometry":{"type":"LineString","coordinates":[[-70.255418656,-17.49712921],[-70.2351957509999,-17.509840751],[-70.229995575,-17.513885332]]},"properties":{"name":null}},{"type":"Feature","geometry":{"type":"LineString","coordinates":[[-70.463425679,-17.5163486979999],[-70.436269207,-17.508837333],[-70.407379342,-17.506526144],[-70.3750226939999,-17.504792752],[-70.3472884239999,-17.505948347],[-70.323020938,-17.505370549],[-70.298175655,-17.50305936],[-70.280263939,-17.505948347],[-70.2646634129999,-17.5013259679999],[-70.260041034,-17.4995925769999]]},"properties":{"name":null}},{"type":"Feature","geometry":{"type":"LineString","coordinates":[[-70.804754166,-17.7492849189999],[-70.76826203,-17.756347913],[-70.703517919,-17.763410907],[-70.6493682989999,-17.765765238],[-70.6034588379999,-17.765765238],[-70.569321034,-17.766942404],[-70.534006064,-17.766942404],[-70.5069312539999,-17.7716510669999],[-70.475147781,-17.7716510669999],[-70.45631313,-17.779891226],[-70.428061154,-17.785777055],[-70.3986320129999,-17.7963715459999],[-70.368025705,-17.802257374],[-70.345659558,-17.7963715459999],[-70.3268249069999,-17.7951943799999],[-70.2915099369999,-17.8069660369999],[-70.2667894589999,-17.814029031],[-70.240891814,-17.8199148589999],[-70.2091083409999,-17.824623522],[-70.180856365,-17.829332184],[-70.153045827,-17.8386023639999],[-70.133181156,-17.8478725429999],[-70.1113300179999,-17.8604535009999],[-70.080870857,-17.873696615],[-70.066303432,-17.8836289499999]]},"properties":{"name":"CALIENTES FAULT"}},{"type":"Feature","geometry":{"type":"LineString","coordinates":[[-70.253611709,-19.334138127],[-70.217096064,-19.325520764],[-70.1418048209999,-19.2898023879999],[-69.978341514,-19.2425545469999]]},"properties":{"name":"Atajaña"}},{"type":"Feature","geometry":{"type":"LineString","coordinates":[[-70.184653387,-19.623733639],[-70.0223030719999,-19.5534218889999],[-69.981287647,-19.5532640669999]]},"properties":{"name":"Pisagua"}},{"type":"Feature","geometry":{"type":"LineString","coordinates":[[-70.147395788,-20.20552521],[-70.121689349,-20.21294011],[-70.070402601,-20.1997858519999],[-70.012697821,-20.207254647],[-69.969449691,-20.2022707909999]]},"properties":{"name":"Zofri"}},{"type":"Feature","geometry":{"type":"LineString","coordinates":[[-70.1169387739999,-20.8505981],[-70.091033674,-20.863046782],[-70.0738628939999,-20.884676025],[-70.022166762,-20.9883042239999],[-69.991220168,-21.081300423],[-69.9526344,-21.1332625119999],[-69.9367877409999,-21.203092867]]},"properties":{"name":"Salar Grande"}},{"type":"Feature","geometry":{"type":"LineString","coordinates":[[-69.944222971,-21.090768457],[-69.910298137,-21.083097451],[-69.8409505189999,-21.0855621699999]]},"properties":{"name":"Chuculay 1"}},{"type":"Feature","geometry":{"type":"LineString","coordinates":[[-69.9309657329999,-21.111154061],[-69.8793302509999,-21.098878118],[-69.795967581,-21.097494012]]},"properties":{"name":"Chuculay 2"}},{"type":"Feature","geometry":{"type":"LineString","coordinates":[[-69.940417833,-21.1382240459999],[-69.8897773959999,-21.129049492],[-69.774957948,-21.135039793],[-69.66833064,-21.09937575]]},"properties":{"name":"Chuculay 3"}},{"type":"Feature","geometry":{"type":"LineString","coordinates":[[-69.911908922,-21.182471097],[-69.851449266,-21.1900791109999],[-69.8196841659999,-21.1739100779999]]},"properties":{"name":"Chuculay 6"}},{"type":"Feature","geometry":{"type":"LineString","coordinates":[[-70.010858323,-21.2023709969999],[-70.067352722,-21.146222004],[-70.1112484129999,-21.085678785],[-70.133925744,-21.018390992]]},"properties":{"name":"Chomache"}},{"type":"Feature","geometry":{"type":"LineString","coordinates":[[-70.321072166,-23.822013125],[-70.321822109,-23.78377721],[-70.3035353499999,-23.6750989719999],[-70.24914896,-23.50959338],[-70.08645798,-23.1897419809999],[-69.986848417,-23.060864615],[-69.9240439279999,-22.9143245679999],[-69.856940906,-22.614892884],[-69.845809136,-22.251036697],[-69.847328179,-22.152655103],[-69.867239183,-21.9433576439999],[-69.848602757,-21.597100531]]},"properties":{"name":"de Atacama segmento Salar del Carmen?"}},{"type":"Feature","geometry":{"type":"LineString","coordinates":[[-70.421761884,-23.406491344],[-70.390896568,-23.368303292],[-70.350343411,-23.2849224469999],[-70.3052605079999,-23.058612973]]},"properties":{"name":"Aeropuerto"}},{"type":"Feature","geometry":{"type":"LineString","coordinates":[[-69.9401443739999,-21.177800415],[-69.871363539,-21.144859923],[-69.854736728,-21.146188916],[-69.8335595889999,-21.162624437]]},"properties":{"name":"Chuculay 5"}},{"type":"Feature","geometry":{"type":"LineString","coordinates":[[-70.3164806029999,-23.3013707389999],[-70.2829085659999,-23.235172494],[-70.244152808,-23.104180947],[-70.21443716,-23.0425147629999],[-70.2054184629999,-22.9849480299999]]},"properties":{"name":"Ordoñez"}},{"type":"Feature","geometry":{"type":"LineString","coordinates":[[-70.188258946,-22.928434737],[-70.178083479,-22.8695984669999],[-70.173207442,-22.719072191]]},"properties":{"name":"Mititus"}},{"type":"Feature","geometry":{"type":"LineString","coordinates":[[-70.3340810939999,-24.4049266339999],[-70.387427626,-24.0264986179999],[-70.414574279,-23.8842786779999],[-70.456813271,-23.761188863]]},"properties":{"name":"Coloso"}},{"type":"Feature","geometry":{"type":"LineString","coordinates":[[-70.447507022,-24.0016193289999],[-70.458029959,-23.952076903],[-70.48506457,-23.9120726369999],[-70.490306727,-23.8711028549999],[-70.5032928959999,-23.8500982419999]]},"properties":{"name":"Bolfin"}},{"type":"Feature","geometry":{"type":"LineString","coordinates":[[-70.440628803,-24.980815349],[-70.392769538,-24.82060082],[-70.365331619,-24.693889978],[-70.3155635109999,-24.403333642],[-70.291078741,-24.195489648]]},"properties":{"name":"Paranal"}},{"type":"Feature","geometry":{"type":"LineString","coordinates":[[-70.4921907689999,-23.419116173],[-70.496446221,-23.303753338],[-70.505916268,-23.2705746729999],[-70.511836478,-23.185552889],[-70.486420934,-23.0951028289999]]},"properties":{"name":"Mejillones"}},{"type":"Feature","geometry":{"type":"LineString","coordinates":[[-70.532758972,-23.397658324],[-70.5411289419999,-23.3595959149999],[-70.568769683,-23.302854456],[-70.5640407669999,-23.2576203199999],[-70.57827788,-23.231582928],[-70.577849307,-23.208373974]]},"properties":{"name":"Caleta Herradura"}},{"type":"Feature","geometry":{"type":"LineString","coordinates":[[-72.2913264662326,-41.4700600835616],[-72.1360609730442,-41.233477792281],[-72.0879529395145,-41.1364007375104],[-71.9641120158367,-40.9337677755298]]},"properties":{"name":"Falla Peulla-Cochamo 006ff"}},{"type":"Feature","geometry":{"type":"LineString","coordinates":[[-72.285972595229,-41.4118041991234],[-72.2651581004514,-41.0990882199794]]},"properties":{"name":"Falla Anticura-Todos los Santos 006dd"}},{"type":"Feature","geometry":{"type":"LineString","coordinates":[[-72.7533558266182,-42.2362730921966],[-72.5617071100554,-42.3940837689798]]},"properties":{"name":"Falla Huequi"}},{"type":"Feature","geometry":{"type":"LineString","coordinates":[[-73.2481918337962,-41.7640190119823],[-72.7007921979803,-42.0017738742498]]},"properties":{"name":"Falla Chacao"}},{"type":"Feature","geometry":{"type":"LineString","coordinates":[[-72.877340035546,-42.2869013782201],[-72.5957190146925,-42.5380264119603],[-72.2960043060518,-42.7399024720502]]},"properties":{"name":"Falla Fiordo Reñihue"}},{"type":"Feature","geometry":{"type":"LineString","coordinates":[[-73.1217608538669,-42.7262298708664],[-72.8656556152367,-42.8476175046641],[-72.4938835455948,-43.0063321192145]]},"properties":{"name":"Falla Chaiten"}},{"type":"Feature","geometry":{"type":"LineString","coordinates":[[-72.4633830785103,-42.5090974805638],[-72.4529043896477,-42.0847559411343],[-72.3451385492861,-41.6606941220586],[-72.3045679624658,-41.4563366345587]]},"properties":{"name":"Falla Comau 006kk"}},{"type":"Feature","geometry":{"type":"LineString","coordinates":[[-72.580970764037,-42.1345787048724],[-72.4979171754037,-41.9754180910323],[-72.4607234204222,-41.85938185006]]},"properties":{"name":"Falla Cascajal 006jj"}},{"type":"Feature","geometry":{"type":"LineString","coordinates":[[-72.6058464354257,-42.7207323054732],[-72.4760575049907,-42.8323985471537]]},"properties":{"name":"Falla Michimahuida"}},{"type":"Feature","geometry":{"type":"LineString","coordinates":[[-75.2681909667613,-47.9154503613402],[-74.8176577454209,-47.7634141791395]]},"properties":{"name":"Falla Wager 006aaa"}},{"type":"Feature","geometry":{"type":"LineString","coordinates":[[-73.560632621958,-45.7891639453235],[-73.4345908785314,-45.1261946670346]]},"properties":{"name":"Falla Canal Costa 006ww"}},{"type":"Feature","geometry":{"type":"LineString","coordinates":[[-73.5699668776,-45.8841573041491],[-73.0730356564691,-45.4124909257517]]},"properties":{"name":"Falla Quitralco 006rr"}},{"type":"Feature","geometry":{"type":"LineString","coordinates":[[-73.4893152454009,-45.4148409859601],[-73.0360752778845,-45.11883083798],[-72.8732286945417,-44.9605139506587],[-72.6886536011873,-44.7644200188267]]},"properties":{"name":"Falla Fiordo Aysen-Puerto Cisnes 006qq"}},{"type":"Feature","geometry":{"type":"LineString","coordinates":[[-72.3293055923939,-43.662194926895],[-72.3632894718555,-43.4596684945043],[-72.4325109864285,-43.2262968730287],[-72.4794484483625,-43.0206579147658],[-72.4728940220174,-42.6560535567705]]},"properties":{"name":"Falla Palena 006mm"}},{"type":"Feature","geometry":{"type":"LineString","coordinates":[[-73.9402901105234,-46.8545253510879],[-73.2892877300351,-46.1612914155707]]},"properties":{"name":"Falla Teresa 006vv"}},{"type":"Feature","geometry":{"type":"LineString","coordinates":[[-72.1667956523827,-41.0456145011359],[-72.1631498962129,-40.8111853580753],[-72.1508527909331,-40.6789148265213],[-72.1320773413806,-40.5333982164941],[-72.0463092059638,-40.2871820747316]]},"properties":{"name":"Falla Maihue-Anticura 006z"}},{"type":"Feature","geometry":{"type":"LineString","coordinates":[[-74.6934478710704,-47.6953067342516],[-74.4610965395528,-47.4637053216734],[-74.02343678856,-47.0004363369912]]},"properties":{"name":"Falla Golfo de Penas 006zz"}},{"type":"Feature","geometry":{"type":"LineString","coordinates":[[-73.6993192411926,-46.3912785608103],[-73.3217080366781,-45.9032905727512]]},"properties":{"name":"Falla Estero Francisco 006uu"}},{"type":"Feature","geometry":{"type":"LineString","coordinates":[[-73.9839923464454,-46.9507225320658],[-73.7255006690833,-46.4031644113645]]},"properties":{"name":"Falla San Rafael 006yy"}},{"type":"Feature","geometry":{"type":"LineString","coordinates":[[-73.6736600998736,-46.3263885525201],[-73.637230451664,-46.213241686089],[-73.5780930030793,-45.9013099899054]]},"properties":{"name":"Falla Seno Elefante 006xx"}},{"type":"Feature","geometry":{"type":"LineString","coordinates":[[-73.3055235913235,-45.8925908170242],[-73.0823984318303,-45.7893361139042],[-72.8507564298499,-45.648778971207],[-72.6624284771367,-45.5101781849904]]},"properties":{"name":"Falla Riesco-Mañihuales 006tt"}},{"type":"Feature","geometry":{"type":"LineString","coordinates":[[-72.9324820736418,-45.6326536926418],[-72.9035355540903,-45.4664414089822],[-72.8866587296657,-45.4214960130203],[-72.9048088698428,-45.3198099334028],[-72.9154491237467,-45.1528084021263],[-72.8937925586426,-45.0325575184503]]},"properties":{"name":"Falla Punta Mano-Lago Yulton 006iii"}},{"type":"Feature","geometry":{"type":"LineString","coordinates":[[-73.0811872973157,-45.7541317366339],[-73.0953553916601,-45.6688383815247],[-73.0921449539374,-45.5689249540214],[-73.058391378283,-45.3450160130825],[-73.0071734708423,-45.1743918614632],[-72.9210024136124,-45.0964086616328],[-72.8968776792565,-45.058175046199]]},"properties":{"name":"Falla Rio Cuervo 006ddd"}},{"type":"Feature","geometry":{"type":"LineString","coordinates":[[-72.721507454257,-45.5225559090359],[-72.7001247882856,-45.3203342097558],[-72.7176001688935,-45.2159239913262],[-72.7183997345608,-45.104147499255],[-72.732481466195,-45.0312824523424]]},"properties":{"name":"Falla Rio Blanco 006kkk"}},{"type":"Feature","geometry":{"type":"LineString","coordinates":[[-72.7636189661273,-45.3817998680325],[-72.7591228746763,-45.2323781246116],[-72.7725316670591,-45.2016535090779],[-72.7488003142523,-45.1574557082037],[-72.7553939269498,-45.0734017446967]]},"properties":{"name":"Falla Los Palos 006mmm"}},{"type":"Feature","geometry":{"type":"LineString","coordinates":[[-73.0069732131255,-45.1715408285043],[-72.967020885585,-45.1005331376906],[-72.9575500955368,-45.0608489362889]]},"properties":{"name":"Falla Rio Cuervo 006bbb"}},{"type":"Feature","geometry":{"type":"LineString","coordinates":[[-73.035333226947,-45.4954034112356],[-72.996728094342,-45.3710108061602],[-72.9877880207347,-45.224611225056]]},"properties":{"name":"Falla Punta Colas 006eee"}},{"type":"Feature","geometry":{"type":"LineString","coordinates":[[-73.2148337419074,-44.9653089642697],[-72.9631573411582,-44.8671552299378],[-72.7479364163143,-44.7505780970943]]},"properties":{"name":"Falla Fiordo Puyuhuapi 006pp"}},{"type":"Feature","geometry":{"type":"LineString","coordinates":[[-72.6913874723576,-44.7024040631777],[-72.6127558769616,-44.5119912084777],[-72.4784815069422,-44.1404548442967],[-72.4033767139625,-43.9363849897152],[-72.3351545991567,-43.6885347651105]]},"properties":{"name":"Falla Puerto Cisnes 006oo"}},{"type":"Feature","geometry":{"type":"LineString","coordinates":[[-72.426579739842,-43.2185566802097],[-71.8701603599785,-43.5216633953343]]},"properties":{"name":"Falla Lago Yelcho"}},{"type":"Feature","geometry":{"type":"LineString","coordinates":[[-72.5504027825536,-41.7476731906383],[-72.3506650514121,-41.6673977701317]]},"properties":{"name":"Falla Estuario Reloncavi"}},{"type":"Feature","geometry":{"type":"LineString","coordinates":[[-72.6619951006512,-41.3170674929397],[-72.4815975535579,-41.3834320883118],[-72.3328153158664,-41.4250136219758]]},"properties":{"name":"Falla Calbuco-Reloncavi"}},{"type":"Feature","geometry":{"type":"LineString","coordinates":[[-72.3068084716067,-41.5470848082006],[-72.2016306371674,-41.621746679975]]},"properties":{"name":"Falla Rio Puelo"}},{"type":"Feature","geometry":{"type":"LineString","coordinates":[[-72.1290707287765,-41.7233450816057],[-72.1980136483509,-41.6256598351771]]},"properties":{"name":"Falla Tagua-Tagua"}},{"type":"Feature","geometry":{"type":"LineString","coordinates":[[-72.5444662858077,-41.1251287445643],[-72.1754169427578,-40.9214425154843]]},"properties":{"name":"Falla Osorno-Puntiagudo"}},{"type":"Feature","geometry":{"type":"LineString","coordinates":[[-72.0021446022161,-40.2688565745383],[-71.9361196362633,-40.180942723634],[-71.8775050787558,-40.0584848763811],[-71.8559802288062,-39.9589182166665],[-71.8374106613109,-39.7569415172229],[-71.803793498973,-39.6737253908989]]},"properties":{"name":"Falla Pirihueico-Maihue 006w"}},{"type":"Feature","geometry":{"type":"LineString","coordinates":[[-72.33602409805,-39.7933721732859],[-71.9628894887286,-39.9674820437074]]},"properties":{"name":"Falla Riñihue-Choshuenco 020a"}},{"type":"Feature","geometry":{"type":"LineString","coordinates":[[-71.8790138139997,-40.0585472749831],[-71.5366763726241,-40.1682733936383]]},"properties":{"name":"Falla Riñihue-Choshuenco 020b"}},{"type":"Feature","geometry":{"type":"LineString","coordinates":[[-72.1003034057779,-40.0878774652368],[-72.05008625816,-40.0067411134369]]},"properties":{"name":"Falla Neltume 006x"}},{"type":"Feature","geometry":{"type":"LineString","coordinates":[[-72.2651952100747,-40.1891490162119],[-72.1491831066861,-40.2250422226728]]},"properties":{"name":"Falla Llifen 021a"}},{"type":"Feature","geometry":{"type":"LineString","coordinates":[[-71.937274124875,-40.3006407577365],[-71.6863757864743,-40.3798790136432]]},"properties":{"name":"Falla Llifen 021b"}},{"type":"Feature","geometry":{"type":"LineString","coordinates":[[-71.7146616519613,-40.007080574498],[-71.6685326663448,-39.8251058968284],[-71.5458347233708,-39.503812924328],[-71.5399798208589,-39.3981127857851]]},"properties":{"name":"Falla Reigolil 006r"}},{"type":"Feature","geometry":{"type":"LineString","coordinates":[[-71.9766416680938,-39.8063597791705],[-71.9283456226062,-39.7142213780881]]},"properties":{"name":"Falla Neltume 006u"}},{"type":"Feature","geometry":{"type":"LineString","coordinates":[[-72.1901030342794,-39.4474487423609],[-72.1178038204493,-39.4914271595713],[-71.9936861491347,-39.5476018780331],[-71.9244074813295,-39.6209512072804]]},"properties":{"name":"Falla Pellaifa"}},{"type":"Feature","geometry":{"type":"LineString","coordinates":[[-72.1121395081003,-39.5444877093427],[-71.9861159384748,-39.6053747194418]]},"properties":{"name":"Falla Calafquen"}},{"type":"Feature","geometry":{"type":"LineString","coordinates":[[-72.2180590603276,-39.7049897312665],[-72.1086644539246,-39.7811095771409]]},"properties":{"name":"Falla Panguipulli"}},{"type":"Feature","geometry":{"type":"LineString","coordinates":[[-71.8607002981335,-39.6863420218871],[-71.7955098519559,-39.5681035922076]]},"properties":{"name":"Falla Liquiñe 006t"}},{"type":"Feature","geometry":{"type":"LineString","coordinates":[[-71.7834351769213,-39.4672390230365],[-71.7803703669909,-39.339699965163]]},"properties":{"name":"Falla Caburgua 006q"}},{"type":"Feature","geometry":{"type":"LineString","coordinates":[[-71.7987801063469,-39.2987955988613],[-71.7810821401437,-39.2058432299413],[-71.7425747035141,-39.0900334258508]]},"properties":{"name":"Falla Caburgua 006p"}},{"type":"Feature","geometry":{"type":"LineString","coordinates":[[-72.0843131674852,-39.1873101965682],[-71.9820212130572,-39.2273251322276],[-71.7009352645094,-39.358690873658],[-71.5428198000473,-39.4494433839083]]},"properties":{"name":"Falla Catripulli"}},{"type":"Feature","geometry":{"type":"LineString","coordinates":[[-71.8872746915849,-39.2641316061478],[-71.8396548616036,-39.2238293687671],[-71.7993294052273,-39.1498744375424],[-71.7869247896792,-39.1029264874857]]},"properties":{"name":"Falla Caburgua 006o"}},{"type":"Feature","geometry":{"type":"LineString","coordinates":[[-72.4454725875571,-38.8865115380353],[-72.6489963487031,-38.6622491227756],[-72.7460690060986,-38.5665900704416],[-73.0458358865549,-38.1773163890578],[-73.2728574457612,-37.9547875018826]]},"properties":{"name":"Falla Lanalhue 004b"}},{"type":"Feature","geometry":{"type":"LineString","coordinates":[[-70.5347101652501,-33.6172834741717],[-70.5269094081927,-33.5293193288813],[-70.5180098562026,-33.4968140547759],[-70.5206937794671,-33.4361351038607],[-70.5400224134379,-33.4055007058795],[-70.5475878647042,-33.369160529091]]},"properties":{"name":"San Ramon 01a"}},{"type":"Feature","geometry":{"type":"LineString","coordinates":[[-71.9828624556814,-34.3695437851876],[-71.8331733974617,-34.5362391517982],[-71.7250098309125,-34.5866424601693]]},"properties":{"name":"Falla Pichilemu"}},{"type":"Feature","geometry":{"type":"LineString","coordinates":[[-71.9480318996295,-34.0846649473903],[-71.7850026995246,-34.2268102013038],[-71.7809497377364,-34.2518786502857],[-71.7221946023957,-34.3272057429967]]},"properties":{"name":"Falla Topocalma 002b"}},{"type":"Feature","geometry":{"type":"LineString","coordinates":[[-71.6101187936479,-34.4214780720329],[-71.708596701113,-34.3513589862528],[-71.804037863636,-34.2812335667456],[-71.9302442382266,-34.1506796608495]]},"properties":{"name":"Falla Topocalma 002c"}},{"type":"Feature","geometry":{"type":"LineString","coordinates":[[-71.3073664046427,-38.0339235197389],[-71.2926570458987,-38.0101849331331],[-71.2825072495911,-37.9335861691357],[-71.2596541261135,-37.8762853170217]]},"properties":{"name":"Falla Ralco 006e"}},{"type":"Feature","geometry":{"type":"LineString","coordinates":[[-71.571182004554,-38.6067078572628],[-71.4255939889439,-38.5567081619412]]},"properties":{"name":"Falla Sierra Nevada"}},{"type":"Feature","geometry":{"type":"LineString","coordinates":[[-71.3705917456914,-38.513612523741],[-71.4510802225753,-38.632105415371],[-71.5939028382765,-38.7549452104557],[-71.638433201781,-38.8170896844021]]},"properties":{"name":"Falla Escorial"}},{"type":"Feature","geometry":{"type":"LineString","coordinates":[[-71.3128262461072,-38.3333744334105],[-71.2569634921184,-38.3936843101196],[-71.0414970103715,-38.6765790871257]]},"properties":{"name":"Falla Bio-Bio Aluminé"}},{"type":"Feature","geometry":{"type":"LineString","coordinates":[[-71.3667009920122,-38.4438469869331],[-71.2931458059674,-38.1947351092461]]},"properties":{"name":"Falla Troyo 006m"}},{"type":"Feature","geometry":{"type":"LineString","coordinates":[[-71.4362794198276,-38.1820262665268],[-71.4466892307916,-38.3033965728355],[-71.463567087356,-38.3442912513341],[-71.5155730040534,-38.3775159266931],[-71.6441156615775,-38.426223323316]]},"properties":{"name":"Falla Lolco 006c"}},{"type":"Feature","geometry":{"type":"LineString","coordinates":[[-71.3098312078688,-38.0374024984063],[-71.372803789242,-38.0734186563325],[-71.4024507285738,-38.1025814022132],[-71.4780158286864,-38.2588227771489],[-71.5369546069187,-38.3256061176212],[-71.625591116132,-38.3665650981772]]},"properties":{"name":"Falla Lolco 006b"}},{"type":"Feature","geometry":{"type":"LineString","coordinates":[[-71.3300883747151,-38.3299009500946],[-71.2870888039064,-38.290694974732],[-71.0992948267552,-38.1685230334275]]},"properties":{"name":"Falla Ranquil"}},{"type":"Feature","geometry":{"type":"LineString","coordinates":[[-71.1332039237178,-38.0061496772405],[-71.2131566979132,-38.0300427585511],[-71.3382806963796,-38.0811692091833],[-71.4126166910142,-38.1271923255675]]},"properties":{"name":"Falla Cahquilvin"}},{"type":"Feature","geometry":{"type":"LineString","coordinates":[[-71.3512680488581,-38.1944460531055],[-71.3261621349176,-38.0782413387781]]},"properties":{"name":"Falla Troyo 006j"}},{"type":"Feature","geometry":{"type":"LineString","coordinates":[[-71.3432930067408,-38.2323670232832],[-71.311884965616,-38.1339716881853]]},"properties":{"name":"Falla Troyo 006k"}},{"type":"Feature","geometry":{"type":"LineString","coordinates":[[-71.6050212229261,-38.9782907429134],[-71.6099396196338,-38.9042842223977],[-71.6445135206445,-38.8315990417816],[-71.641964805646,-38.7296301781904],[-71.6568712504297,-38.5195274170435],[-71.648000071771,-38.3832250536999]]},"properties":{"name":"Falla Malalcahuello 006b"}},{"type":"Feature","geometry":{"type":"LineString","coordinates":[[-71.6410439139032,-38.2417754906061],[-71.6238753767494,-38.1677802994534],[-71.6241906159041,-38.1363832714234],[-71.5889155610983,-38.0083206307724],[-71.5623498584295,-37.9741890906742]]},"properties":{"name":"Falla Malalcahuello 006a"}},{"type":"Feature","geometry":{"type":"LineString","coordinates":[[-71.2850244555363,-38.0133791615903],[-71.2575918742656,-37.9737831438318],[-71.2144333766989,-37.9369360750845],[-71.0898633976177,-37.8735139507907]]},"properties":{"name":"Falla Lomin 006f"}},{"type":"Feature","geometry":{"type":"LineString","coordinates":[[-71.4369605800146,-38.9148516600931],[-71.421729398302,-38.7958280925504],[-71.3920138904957,-38.6907564128995],[-71.3852219865766,-38.6208244757148],[-71.3703348979592,-38.5755807078732]]},"properties":{"name":"Falla Troyo 006n"}},{"type":"Feature","geometry":{"type":"LineString","coordinates":[[-71.8922910376643,-38.0370324014216],[-71.7660376162566,-38.1858947516351],[-71.656761755796,-38.2935270881233]]},"properties":{"name":"Falla Tolhuaca Pemehue"}},{"type":"Feature","geometry":{"type":"LineString","coordinates":[[-71.6684725646664,-39.0345135705608],[-71.5164949738053,-38.9721884618885],[-71.3347306663801,-38.8482034007368],[-71.1738845136372,-38.7782977351245]]},"properties":{"name":"Falla Sollipulli-Icalma"}},{"type":"Feature","geometry":{"type":"LineString","coordinates":[[-72.4396827202081,-40.3186918720904],[-72.313210613333,-40.390304475137],[-72.2461218749036,-40.453074253885],[-72.145238661293,-40.5240343506791]]},"properties":{"name":"Falla Pullehue-Cordon Caulle 023a"}},{"type":"Feature","geometry":{"type":"LineString","coordinates":[[-72.2911308353908,-40.4740938367714],[-72.15303992953,-40.5571843707271]]},"properties":{"name":"Falla Pullehue-Cordon Caulle 023c"}},{"type":"Feature","geometry":{"type":"LineString","coordinates":[[-71.5746630981377,-39.5819537208527],[-72.202441720738,-39.2908493696658]]},"properties":{"name":"Falla Villarrica-Quetrupillan-Lanin"}},{"type":"Feature","geometry":{"type":"LineString","coordinates":[[-71.5514546375092,-37.9643986963377],[-71.1050168672002,-37.8130811592626]]},"properties":{"name":"Falla Callaqui"}},{"type":"Feature","geometry":{"type":"LineString","coordinates":[[-72.0461988876727,-40.4885956405739],[-72.0275222541986,-40.3681426314163]]},"properties":{"name":"Falla Maihue-Anticura 006aa"}},{"type":"Feature","geometry":{"type":"LineString","coordinates":[[-72.0803523375102,-40.3610830459788],[-72.3880515964995,-40.0967282581135]]},"properties":{"name":"Falla Futrono"}},{"type":"Feature","geometry":{"type":"LineString","coordinates":[[-71.5664113073475,-38.5423804156427],[-71.3604455773241,-38.4213685659226]]},"properties":{"name":"Falla Las Raices"}},{"type":"Feature","geometry":{"type":"LineString","coordinates":[[-70.9563947455857,-54.104707889903],[-71.4198663033,-53.9309060557601],[-71.9323588921948,-53.7927558793495],[-72.400286908025,-53.6144975879901],[-72.7835422349423,-53.4406957538473],[-73.1044071599288,-53.3203714063028],[-73.4297285421319,-53.1287437432938],[-73.683746607971,-52.941572536602]]},"properties":{"name":"Falla Lago Fagnano, sección occidental"}},{"type":"Feature","geometry":{"type":"LineString","coordinates":[[-68.6781794573097,-54.3712853107379],[-69.333292652598,-54.2794680245131],[-69.5673420380996,-54.2257909477794],[-69.9340394974744,-54.1712006787728]]},"properties":{"name":"Falla Lago Fagnano, sección occidental"}},{"type":"Feature","geometry":{"type":"LineString","coordinates":[[-69.2580366234604,-54.3484112329884],[-68.9159605355051,-54.383287260544],[-68.7050354461211,-54.4316840678073],[-68.599167463676,-54.4445654709211]]},"properties":{"name":"Falla Lago Fagnano, sección occidental"}},{"type":"Feature","geometry":{"type":"LineString","coordinates":[[-69.5039472679305,-54.186552709258],[-69.8323306689735,-54.1358181872246],[-70.0681333897905,-54.085911920995]]},"properties":{"name":"Falla Lago Fagnano, sección occidental"}},{"type":"Feature","geometry":{"type":"LineString","coordinates":[[-70.8542787949014,-53.9439360772352],[-70.5861650352641,-54.1204211411751]]},"properties":{"name":"Falla Lago Fagnano, sección occidental"}},{"type":"Feature","geometry":{"type":"LineString","coordinates":[[-70.4770202731805,-54.2543311491159],[-70.554694149379,-54.213554068979],[-70.7675071117546,-54.1402607337279],[-70.8113902235515,-54.1115047292787]]},"properties":{"name":"Falla Lago Fagnano, sección occidental"}},{"type":"Feature","geometry":{"type":"LineString","coordinates":[[-69.9566883049482,-54.3158995023634],[-70.1526635127793,-54.3789178675924]]},"properties":{"name":"Falla Lago Fagnano, sección occidental"}},{"type":"Feature","geometry":{"type":"LineString","coordinates":[[-69.1705527159372,-54.4298072978455],[-69.0369051805267,-54.4570581717654],[-68.9789101547594,-54.4804234762944],[-68.8061473523231,-54.5102636808991]]},"properties":{"name":"Falla Lago Fagnano, sección occidental"}},{"type":"Feature","geometry":{"type":"LineString","coordinates":[[-69.6205921041432,-54.3119378188525],[-69.7237161894265,-54.3063618055343],[-69.8805141390651,-54.3165244178592]]},"properties":{"name":"Falla Lago Fagnano, sección occidental"}},{"type":"Feature","geometry":{"type":"LineString","coordinates":[[-66.3719349597762,-27.3502279804255],[-66.3397138801386,-27.3131880302834],[-66.311151839666,-27.2915150402715],[-66.2738360395785,-27.2787290102589],[-66.1983631200478,-27.2168610298908],[-66.1350301198123,-27.134771040062],[-66.1212669602271,-27.1053780296317],[-66.1089121608063,-27.0573367598065],[-66.0996503209168,-26.9863186482124],[-66.0729062295212,-26.8989309202679]]},"properties":{"name":"Sistema de fallas Aconquija"}},{"type":"Feature","geometry":{"type":"LineString","coordinates":[[-69.2339309997348,-30.0787610402431],[-69.2414161199372,-30.3206259595586]]},"properties":{"name":"Falla Pismanta-Las Flores"}},{"type":"Feature","geometry":{"type":"LineString","coordinates":[[-68.9753300400957,-31.0529819698089],[-68.9975150402192,-31.1339009704097],[-69.0694369201674,-31.2300590403537]]},"properties":{"name":"Falla La Cantera"}},{"type":"Feature","geometry":{"type":"LineString","coordinates":[[-68.8739918401895,-31.8302219698257],[-68.904353879999,-31.6796390099011]]},"properties":{"name":"Falla Maradona-Acequion"}},{"type":"Feature","geometry":{"type":"LineString","coordinates":[[-68.6467569603456,-31.4443140296304],[-68.611708080398,-31.3758539999018],[-68.5814461198419,-31.3367229902439],[-68.5394309997245,-31.1986600004061],[-68.5441899996636,-31.1689169999223],[-68.5203949999683,-31.0487539997431],[-68.5061190001972,-31.0130620002232]]},"properties":{"name":"Falla Las Tapias-Villicum"}},{"type":"Feature","geometry":{"type":"LineString","coordinates":[[-68.6475820802136,-31.9037789701079],[-68.6181848402717,-31.8670290000588],[-68.6049040797209,-31.832996040141],[-68.5984049995738,-31.7840889602562],[-68.6173341598729,-31.6934370002285]]},"properties":{"name":"Falla Rinconada"}},{"type":"Feature","geometry":{"type":"LineString","coordinates":[[-68.7570238802696,-32.1962779796693],[-68.7391358399027,-32.1711239703887],[-68.712305040202,-32.1040469702374],[-68.63114591972,-31.9764220199887],[-68.6066608801241,-31.9067949598477],[-68.5755028800642,-31.8525980399075]]},"properties":{"name":"Falla Los Berros"}},{"type":"Feature","geometry":{"type":"LineString","coordinates":[[-68.6916989995503,-32.2429339800724],[-68.6881778399423,-32.1960509997823],[-68.6714299195747,-32.1351650098224],[-68.6428138802102,-32.0970950104021],[-68.5863470074888,-32.0187903650722],[-68.5857819599879,-31.9968970204274],[-68.5682038799516,-31.9670129702764]]},"properties":{"name":"Falla Cerro Salinas"}},{"type":"Feature","geometry":{"type":"LineString","coordinates":[[-67.9707788401704,-31.7615499896798],[-67.9191130800681,-31.7257939800152],[-67.8769779598151,-31.6025190000601],[-67.8510770402069,-31.5804899702555]]},"properties":{"name":"Falla Niquizanga"}},{"type":"Feature","geometry":{"type":"LineString","coordinates":[[-68.984798040367,-32.080640039689],[-68.9666241603857,-32.1003060298152],[-68.9661691196266,-32.1171100202134],[-68.934070079787,-32.1356199597499],[-68.9231750398163,-32.2807789799128],[-68.8774471199623,-32.3534570404002],[-68.8762771199886,-32.3868719700317],[-68.8582321200487,-32.4137770195579],[-68.8601739595567,-32.4680090400369],[-68.8339191603272,-32.536985039592],[-68.84180495997,-32.634007019861],[-68.8566769197654,-32.6548279795918],[-68.8608410397659,-32.7356700297032],[-68.8424000395581,-32.8207349696103],[-68.8507279198301,-32.9171039998179]]},"properties":{"name":"Falla Cerro La Cal"}},{"type":"Feature","geometry":{"type":"LineString","coordinates":[[-68.7205080001474,-31.7004879997009],[-68.7300260000256,-31.664796000181],[-68.7127749998141,-31.5666430001524],[-68.6634220801339,-31.4820900002098]]},"properties":{"name":"Falla Zonda"}},{"type":"Feature","geometry":{"type":"LineString","coordinates":[[-66.7441130395831,-29.1524100303447],[-66.771717839889,-29.2708559702618],[-66.8641708802387,-29.3781410099318],[-66.8696630398717,-29.3983329595537]]},"properties":{"name":"Grupo de fallas El Duraznillo"}},{"type":"Feature","geometry":{"type":"LineString","coordinates":[[-66.3305730001616,-28.8937299996148],[-66.1899549995664,-28.80715099981]]},"properties":{"name":"Falla Chumbicha"}},{"type":"Feature","geometry":{"type":"LineString","coordinates":[[-68.8798771195334,-32.2397900096012],[-68.8453740006096,-32.2802409594527],[-68.8144409995525,-32.3308040401743],[-68.8138459199532,-32.409921959231],[-68.8019489999464,-32.4557260201397],[-68.794810919888,-32.5509049801806]]},"properties":{"name":"Falla Las Peñas"}},{"type":"Feature","geometry":{"type":"LineString","coordinates":[[-70.247818035566,-54.0601433168383],[-70.1274936889209,-54.1091643471195],[-69.8378239653495,-54.1893805788158],[-69.6105446428095,-54.2339451518804],[-69.2540280600907,-54.349813041309],[-69.1426166269794,-54.4077469860233],[-68.7147967269973,-54.4968761312534],[-68.5900159231357,-54.5147019610188],[-68.5458589277723,-54.534627449708],[-68.16276570584,-54.5726988258012],[-67.9377876677403,-54.5631809817779],[-67.7871082995466,-54.5411709674739]]},"properties":{"name":"Sistema de fallas Fagnano"}},{"type":"Feature","geometry":{"type":"LineString","coordinates":[[-67.6319718483764,-54.5494990809943],[-67.3856976342729,-54.5506888114973],[-67.2833808110222,-54.5358171802108]]},"properties":{"name":"Sistema de fallas Fagnano"}},{"type":"Feature","geometry":{"type":"LineString","coordinates":[[-67.2341854547267,-54.5375819471235],[-66.9617371695591,-54.5548330394157],[-66.8701279208346,-54.5792225147255],[-66.7832775941218,-54.5857660324915]]},"properties":{"name":"Sistema de fallas Fagnano"}},{"type":"Feature","geometry":{"type":"LineString","coordinates":[[-66.7340822378263,-54.5566176351701],[-66.6133245917804,-54.5601868266789],[-66.5919094427279,-54.5488843869012],[-66.5181461515472,-54.5542381741643],[-66.4592544916529,-54.5352024861176],[-66.408690945279,-54.5357973513691],[-66.3065221373429,-54.5089922395848]]},"properties":{"name":"Sistema de fallas Fagnano"}},{"type":"Feature","geometry":{"type":"LineString","coordinates":[[-69.1695899997987,-30.4295059801226],[-69.1309400401923,-30.3396029997626]]},"properties":{"name":"Sistema de fallas El Tigre"}},{"type":"Feature","geometry":{"type":"LineString","coordinates":[[-69.2563528803815,-31.0709250001206],[-69.2240860801112,-30.8907000003011],[-69.2244100797581,-30.8254750198702],[-69.2021638798711,-30.7674819896985],[-69.1986920399825,-30.6446319897643],[-69.1908620396744,-30.6224270103026],[-69.2045650795819,-30.5290330201055],[-69.2317079997849,-30.4966199702882]]},"properties":{"name":"Sistema de fallas El Tigre"}},{"type":"Feature","geometry":{"type":"LineString","coordinates":[[-70.9467495491361,-37.2232871608557],[-70.9628130050984,-37.254469163606],[-70.9647028234469,-37.3385660801143],[-70.9470148740855,-37.384503673595],[-70.9447944604876,-37.4340149880841]]},"properties":{"name":"Zona de falla Antiñir-Copahue"}},{"type":"Feature","geometry":{"type":"LineString","coordinates":[[-70.9205971929871,-37.0731349590743],[-70.9098980913403,-37.22423207003],[-70.9456067071872,-37.4567578956716]]},"properties":{"name":"Zona de falla Antiñir-Copahue"}},{"type":"Feature","geometry":{"type":"LineString","coordinates":[[-70.7142020535673,-37.3379725651598],[-70.640703368438,-37.4512830380674],[-70.6320264403325,-37.5640831034394],[-70.6121205464433,-37.5809265521149]]},"properties":{"name":"Zona de falla Antiñir-Copahue"}},{"type":"Feature","geometry":{"type":"LineString","coordinates":[[-70.8400872589725,-37.4513450109827],[-70.9135447749535,-37.5648391081022]]},"properties":{"name":"Zona de falla Antiñir-Copahue"}},{"type":"Feature","geometry":{"type":"LineString","coordinates":[[-70.9046565321165,-37.4732492601969],[-71.0036202248268,-37.6680607567544]]},"properties":{"name":"Zona de falla Antiñir-Copahue"}},{"type":"Feature","geometry":{"type":"LineString","coordinates":[[-70.8499748040866,-37.5844982930855],[-70.8084921138569,-37.5386159235891],[-70.8103776906856,-37.5172460528647],[-70.7836360259169,-37.4894262881417],[-70.7198700029118,-37.4122822760716],[-70.7116991699878,-37.3601146504798]]},"properties":{"name":"Zona de falla Antiñir-Copahue"}},{"type":"Feature","geometry":{"type":"LineString","coordinates":[[-71.0872296683876,-36.6106188746776],[-71.0366962045924,-36.7805950710795],[-71.0236681896008,-36.9432298759689],[-70.9171326476531,-37.0386679656304]]},"properties":{"name":"Zona de falla Antiñir-Copahue"}},{"type":"Feature","geometry":{"type":"LineString","coordinates":[[-70.7998537449258,-37.0405616078465],[-70.7120665431207,-37.2446830013412]]},"properties":{"name":"Zona de falla Antiñir-Copahue"}},{"type":"Feature","geometry":{"type":"LineString","coordinates":[[-68.3685165102253,-34.8472350855626],[-68.3695983669176,-34.8914219249009],[-68.3452254872173,-34.9400811932942],[-68.3472228699204,-34.9970065591484],[-68.3296699849932,-35.022679794889],[-68.3126560177939,-35.0807831524689]]},"properties":{"name":"Falla Las Malvinas"}},{"type":"Feature","geometry":{"type":"LineString","coordinates":[[-70.2931088896635,-17.462711849772],[-70.1821790396309,-17.5048867199461],[-70.0856387803054,-17.5621956099394],[-69.9922610696926,-17.6018865598168]]},"properties":{"name":"Falla Toquepala"}},{"type":"Feature","geometry":{"type":"LineString","coordinates":[[-71.3494794403239,-17.6928827703235],[-71.337211549973,-17.664915280116],[-71.2969739696729,-17.6315465201557],[-71.1493573856348,-17.556695670169],[-71.1045094164763,-17.5166274358075]]},"properties":{"name":"Falla Chololo"}},{"type":"Feature","geometry":{"type":"LineString","coordinates":[[-71.0994293629747,-17.5098464648424],[-71.0530243202161,-17.4709517603154],[-71.0114668499152,-17.4497967704046]]},"properties":{"name":"Falla Chololo"}},{"type":"Feature","geometry":{"type":"LineString","coordinates":[[-71.0679855299082,-17.4826022795715],[-71.042351723753,-17.4304444058846],[-71.0080697013556,-17.3894556128862]]},"properties":{"name":"Falla Chololo"}},{"type":"Feature","geometry":{"type":"LineString","coordinates":[[-70.0357105292175,-17.9192412659716],[-70.1049977215675,-17.8617152733411]]},"properties":{"name":"Falla Sama-Calientes"}},{"type":"Feature","geometry":{"type":"LineString","coordinates":[[-70.0040853982225,-17.9285420230958],[-70.0224893952694,-17.8997161263981],[-70.0695205802106,-17.8583323979218]]},"properties":{"name":"Falla Sama-Calientes"}},{"type":"Feature","geometry":{"type":"LineString","coordinates":[[-69.9470063425686,-17.9981785436049],[-70.1127264925336,-17.8636890424153],[-70.1578989226971,-17.83545303443],[-70.3247775028794,-17.801887371505],[-70.3873765810643,-17.8044462583881],[-70.4783881816692,-17.7725588302258],[-70.5848232902626,-17.7706932397012]]},"properties":{"name":"Falla Sama-Calientes"}},{"type":"Feature","geometry":{"type":"LineString","coordinates":[[-70.9623182103171,-17.3287529602808],[-70.7350435438245,-17.4288779208793],[-70.6292796307503,-17.4654422121883],[-70.5658416325853,-17.4631522540732]]},"properties":{"name":"Falla Purgatorio"}},{"type":"Feature","geometry":{"type":"LineString","coordinates":[[-71.121561886272,-17.6330429749533],[-71.0990340344931,-17.6297786751457],[-71.0303639920046,-17.5782180151492]]},"properties":{"name":"Falla Chaspaya"}},{"type":"Feature","geometry":{"type":"LineString","coordinates":[[-70.6954609901326,-17.198470049653],[-70.615984835132,-17.25001723151],[-70.5159289496613,-17.27205643036],[-70.4314251743323,-17.3088214557455]]},"properties":{"name":"Falla Micalaco"}},{"type":"Feature","geometry":{"type":"LineString","coordinates":[[-70.0551071934422,-17.9303520373166],[-70.1062605244036,-17.8983812060278],[-70.2186151613606,-17.85270858913]]},"properties":{"name":"Falla San Francisco"}},{"type":"Feature","geometry":{"type":"LineString","coordinates":[[-70.5273478737054,-17.5320525481865],[-70.4809301550026,-17.6219505335902]]},"properties":{"name":"Falla Cerro Rocoso"}},{"type":"Feature","geometry":{"type":"LineString","coordinates":[[-67.4566840002624,-31.4270629997413],[-67.4951130000435,-31.326117999614],[-67.5023390003882,-31.2818400000106],[-67.5352379997634,-31.1846520003984],[-67.5556140001352,-31.1607759996672]]},"properties":{"name":"Falla Las Chacras"}},{"type":"Feature","geometry":{"type":"LineString","coordinates":[[-67.365881,-31.5957920002345],[-67.4003830004221,-31.55415099988],[-67.4015730004184,-31.5279770002382],[-67.4455929998201,-31.4399369996362]]},"properties":{"name":"Falla Las Chacras"}},{"type":"Feature","geometry":{"type":"LineString","coordinates":[[-70.7880886468652,-37.0176850282844],[-70.8611577349576,-36.9761412841498],[-70.9677420917581,-36.8640910628979],[-71.0244504354405,-36.7397426466305],[-71.0353821643431,-36.6659534765378],[-71.0750096816152,-36.6270091923222],[-71.1016557708153,-36.5819158105988]]},"properties":{"name":"Zona de falla Antiñir-Copahue"}},{"type":"Feature","geometry":{"type":"LineString","coordinates":[[-76.321,-47.478],[-75.997,-47.08]]},"properties":{"name":null}},{"type":"Feature","geometry":{"type":"LineString","coordinates":[[-75.997,-47.08],[-75.958,-46.422]]},"properties":{"name":null}},{"type":"Feature","geometry":{"type":"LineString","coordinates":[[-75.958,-46.422],[-76.006,-45.659]]},"properties":{"name":null}},{"type":"Feature","geometry":{"type":"LineString","coordinates":[[-76.006,-45.659],[-75.821,-44.849]]},"properties":{"name":null}},{"type":"Feature","geometry":{"type":"LineString","coordinates":[[-75.821,-44.849],[-75.782,-44.051]]},"properties":{"name":null}},{"type":"Feature","geometry":{"type":"LineString","coordinates":[[-75.782,-44.051],[-75.632,-43.648]]},"properties":{"name":null}},{"type":"Feature","geometry":{"type":"LineString","coordinates":[[-75.632,-43.648],[-75.558,-42.972]]},"properties":{"name":null}},{"type":"Feature","geometry":{"type":"LineString","coordinates":[[-75.558,-42.972],[-75.402,-42.285]]},"properties":{"name":null}},{"type":"Feature","geometry":{"type":"LineString","coordinates":[[-75.402,-42.285],[-75.397,-41.826]]},"properties":{"name":null}},{"type":"Feature","geometry":{"type":"LineString","coordinates":[[-75.397,-41.826],[-75.392,-41.367]]},"properties":{"name":null}},{"type":"Feature","geometry":{"type":"LineString","coordinates":[[-75.392,-41.367],[-75.189,-40.863]]},"properties":{"name":null}},{"type":"Feature","geometry":{"type":"LineString","coordinates":[[-75.189,-40.863],[-75.195,-40.359]]},"properties":{"name":null}},{"type":"Feature","geometry":{"type":"LineString","coordinates":[[-75.195,-40.359],[-75.128,-39.813]]},"properties":{"name":null}},{"type":"Feature","geometry":{"type":"LineString","coordinates":[[-75.128,-39.813],[-75.149,-39.564]]},"properties":{"name":null}},{"type":"Feature","geometry":{"type":"LineString","coordinates":[[-75.149,-39.564],[-74.988,-39.068]]},"properties":{"name":null}},{"type":"Feature","geometry":{"type":"LineString","coordinates":[[-74.988,-39.068],[-74.836,-38.542]]},"properties":{"name":null}},{"type":"Feature","geometry":{"type":"LineString","coordinates":[[-74.836,-38.542],[-74.655,-38.138]]},"properties":{"name":null}},{"type":"Feature","geometry":{"type":"LineString","coordinates":[[-74.655,-38.138],[-74.596,-37.563]]},"properties":{"name":null}},{"type":"Feature","geometry":{"type":"LineString","coordinates":[[-74.596,-37.563],[-74.442,-36.725]]},"properties":{"name":null}},{"type":"Feature","geometry":{"type":"LineString","coordinates":[[-74.442,-36.725],[-74.262,-36.165]]},"properties":{"name":null}},{"type":"Feature","geometry":{"type":"LineString","coordinates":[[-74.262,-36.165],[-73.897,-35.578]]},"properties":{"name":null}},{"type":"Feature","geometry":{"type":"LineString","coordinates":[[-73.897,-35.578],[-73.675,-34.888]]},"properties":{"name":null}},{"type":"Feature","geometry":{"type":"LineString","coordinates":[[-73.675,-34.888],[-73.246,-34.29]]},"properties":{"name":null}},{"type":"Feature","geometry":{"type":"LineString","coordinates":[[-73.246,-34.29],[-72.938,-33.837]]},"properties":{"name":null}},{"type":"Feature","geometry":{"type":"LineString","coordinates":[[-72.938,-33.837],[-72.861,-33.359]]},"properties":{"name":null}},{"type":"Feature","geometry":{"type":"LineString","coordinates":[[-72.861,-33.359],[-72.889,-32.742]]},"properties":{"name":null}},{"type":"Feature","geometry":{"type":"LineString","coordinates":[[-72.889,-32.742],[-72.762,-32.319]]},"properties":{"name":null}},{"type":"Feature","geometry":{"type":"LineString","coordinates":[[-72.762,-32.319],[-72.678,-31.531]]},"properties":{"name":null}},{"type":"Feature","geometry":{"type":"LineString","coordinates":[[-72.678,-31.531],[-72.618,-30.965]]},"properties":{"name":null}},{"type":"Feature","geometry":{"type":"LineString","coordinates":[[-72.618,-30.965],[-72.6,-30.19]]},"properties":{"name":null}},{"type":"Feature","geometry":{"type":"LineString","coordinates":[[-72.6,-30.19],[-72.555,-29.536]]},"properties":{"name":null}},{"type":"Feature","geometry":{"type":"LineString","coordinates":[[-72.555,-29.536],[-72.433,-28.901]]},"properties":{"name":null}},{"type":"Feature","geometry":{"type":"LineString","coordinates":[[-72.433,-28.901],[-72.17,-28.278]]},"properties":{"name":null}},{"type":"Feature","geometry":{"type":"LineString","coordinates":[[-72.17,-28.278],[-71.958,-27.755]]},"properties":{"name":null}},{"type":"Feature","geometry":{"type":"LineString","coordinates":[[-71.958,-27.755],[-71.847,-27.248]]},"properties":{"name":null}},{"type":"Feature","geometry":{"type":"LineString","coordinates":[[-71.847,-27.248],[-71.753,-26.652]]},"properties":{"name":null}},{"type":"Feature","geometry":{"type":"LineString","coordinates":[[-71.753,-26.652],[-71.628,-25.84]]},"properties":{"name":null}},{"type":"Feature","geometry":{"type":"LineString","coordinates":[[-71.628,-25.84],[-71.524,-25.093]]},"properties":{"name":null}},{"type":"Feature","geometry":{"type":"LineString","coordinates":[[-71.524,-25.093],[-71.466,-24.263]]},"properties":{"name":null}},{"type":"Feature","geometry":{"type":"LineString","coordinates":[[-71.466,-24.263],[-71.39,-23.523]]},"properties":{"name":null}},{"type":"Feature","geometry":{"type":"LineString","coordinates":[[-71.39,-23.523],[-71.348,-22.758]]},"properties":{"name":null}},{"type":"Feature","geometry":{"type":"LineString","coordinates":[[-71.348,-22.758],[-71.307,-21.965]]},"properties":{"name":null}},{"type":"Feature","geometry":{"type":"LineString","coordinates":[[-71.307,-21.965],[-71.249,-21.262]]},"properties":{"name":null}},{"type":"Feature","geometry":{"type":"LineString","coordinates":[[-71.249,-21.262],[-71.323,-20.758]]},"properties":{"name":null}},{"type":"Feature","geometry":{"type":"LineString","coordinates":[[-71.323,-20.758],[-71.362,-20.249]]},"properties":{"name":null}},{"type":"Feature","geometry":{"type":"LineString","coordinates":[[-71.362,-20.249],[-71.487,-19.811]]},"properties":{"name":null}},{"type":"Feature","geometry":{"type":"LineString","coordinates":[[-71.487,-19.811],[-71.746,-19.298]]},"properties":{"name":null}},{"type":"Feature","geometry":{"type":"LineString","coordinates":[[-71.746,-19.298],[-72.266,-18.722]]},"properties":{"name":null}},{"type":"Feature","geometry":{"type":"LineString","coordinates":[[-72.266,-18.722],[-72.737,-18.257]]},"properties":{"name":null}},{"type":"Feature","geometry":{"type":"LineString","coordinates":[[-72.737,-18.257],[-73.4,-17.747]]},"properties":{"name":null}},{"type":"Feature","geometry":{"type":"LineString","coordinates":[[-73.4,-17.747],[-73.949,-17.374]]},"properties":{"name":null}},{"type":"Feature","geometry":{"type":"LineString","coordinates":[[-73.949,-17.374],[-74.609,-16.823]]},"properties":{"name":null}},{"type":"Feature","geometry":{"type":"LineString","coordinates":[[-76.02,-53.435],[-75.72,-53.941]]},"properties":{"name":null}},{"type":"Feature","geometry":{"type":"LineString","coordinates":[[-75.72,-53.941],[-75.239,-54.294]]},"properties":{"name":null}},{"type":"Feature","geometry":{"type":"LineString","coordinates":[[-75.239,-54.294],[-74.749,-54.645]]},"properties":{"name":null}},{"type":"Feature","geometry":{"type":"LineString","coordinates":[[-74.749,-54.645],[-74.12,-55.004]]},"properties":{"name":null}},{"type":"Feature","geometry":{"type":"LineString","coordinates":[[-74.12,-55.004],[-73.48,-55.359]]},"properties":{"name":null}},{"type":"Feature","geometry":{"type":"LineString","coordinates":[[-73.48,-55.359],[-72.995,-55.665]]},"properties":{"name":null}},{"type":"Feature","geometry":{"type":"LineString","coordinates":[[-72.995,-55.665],[-72.277,-55.962]]},"properties":{"name":null}},{"type":"Feature","geometry":{"type":"LineString","coordinates":[[-72.277,-55.962],[-71.548,-56.255]]},"properties":{"name":null}},{"type":"Feature","geometry":{"type":"LineString","coordinates":[[-71.307,-21.965],[-70.683,-21.734]]},"properties":{"name":null}}]}